CTC1_L_00192001-01
1 16919U 25489OH  26037.47803241  .00000000  00000+0  00000-0 0  9990
2 16919  40.0000   0.0000 0000000   0.0000   0.0000 13.56072426    19
CTC1_L_00192001-02
1 16920U 26013XC  26037.47803241  .00000000  00000+0  00000-0 0  9996
2 16920  40.0000   0.0000 0000000   0.0000  90.0000 13.56072426    10
CTC1_L_00192001-03
1 16921U 25622ED  26037.47803241  .00000000  00000+0  00000-0 0  9992
2 16921  40.0000   0.0000 0000000   0.0000 180.0000 13.56072426    11
CTC1_L_00192001-04
1 16922U 22218SC  26037.47803241  .00000000  00000+0  00000-0 0  9991
2 16922  40.0000   0.0000 0000000   0.0000 270.0000 13.56072426    12
CTC1_L_00192002-01
1 16923U 22431GI  26037.47803241  .00000000  00000+0  00000-0 0  9999
2 16923  40.0000  12.0000 0000000   0.0000  12.0000 13.56072426    10
CTC1_L_00192002-02
1 16924U 25820FA  26037.47803241  .00000000  00000+0  00000-0 0  9995
2 16924  40.0000  12.0000 0000000   0.0000 102.0000 13.56072426    11
CTC1_L_00192002-03
1 16925U 24232FD  26037.47803241  .00000000  00000+0  00000-0 0  9992
2 16925  40.0000  12.0000 0000000   0.0000 192.0000 13.56072426    11
CTC1_L_00192002-04
1 16926U 22521CF  26037.47803241  .00000000  00000+0  00000-0 0  9992
2 16926  40.0000  12.0000 0000000   0.0000 282.0000 13.56072426    12
CTC1_L_00192003-01
1 16927U 22438FW  26037.47803241  .00000000  00000+0  00000-0 0  9990
2 16927  40.0000  24.0000 0000000   0.0000  24.0000 13.56072426    10
CTC1_L_00192003-02
1 16928U 25236YG  26037.47803241  .00000000  00000+0  00000-0 0  9990
2 16928  40.0000  24.0000 0000000   0.0000 114.0000 13.56072426    11
CTC1_L_00192003-03
1 16929U 26437M   26037.47803241  .00000000  00000+0  00000-0 0  9995
2 16929  40.0000  24.0000 0000000   0.0000 204.0000 13.56072426    12
CTC1_L_00192003-04
1 16930U 24038JG  26037.47803241  .00000000  00000+0  00000-0 0  9992
2 16930  40.0000  24.0000 0000000   0.0000 294.0000 13.56072426    13
CTC1_L_00192004-01
1 16931U 24017VD  26037.47803241  .00000000  00000+0  00000-0 0  9990
2 16931  40.0000  36.0000 0000000   0.0000  36.0000 13.56072426    11
CTC1_L_00192004-02
1 16932U 25443VO  26037.47803241  .00000000  00000+0  00000-0 0  9995
2 16932  40.0000  36.0000 0000000   0.0000 126.0000 13.56072426    12
CTC1_L_00192004-03
1 16933U 22670MT  26037.47803241  .00000000  00000+0  00000-0 0  9995
2 16933  40.0000  36.0000 0000000   0.0000 216.0000 13.56072426    13
CTC1_L_00192004-04
1 16934U 22557K   26037.47803241  .00000000  00000+0  00000-0 0  9990
2 16934  40.0000  36.0000 0000000   0.0000 306.0000 13.56072426    14
CTC1_L_00192005-01
1 16935U 26539GG  26037.47803241  .00000000  00000+0  00000-0 0  9995
2 16935  40.0000  48.0000 0000000   0.0000  48.0000 13.56072426    11
CTC1_L_00192005-02
1 16936U 26846TQ  26037.47803241  .00000000  00000+0  00000-0 0  9997
2 16936  40.0000  48.0000 0000000   0.0000 138.0000 13.56072426    12
CTC1_L_00192005-03
1 16937U 25773ZO  26037.47803241  .00000000  00000+0  00000-0 0  9996
2 16937  40.0000  48.0000 0000000   0.0000 228.0000 13.56072426    13
CTC1_L_00192005-04
1 16938U 23401GL  26037.47803241  .00000000  00000+0  00000-0 0  9993
2 16938  40.0000  48.0000 0000000   0.0000 318.0000 13.56072426    14
CTC1_L_00192006-01
1 16939U 24882CS  26037.47803241  .00000000  00000+0  00000-0 0  9998
2 16939  40.0000  60.0000 0000000   0.0000  60.0000 13.56072426    13
CTC1_L_00192006-02
1 16940U 25257VA  26037.47803241  .00000000  00000+0  00000-0 0  9997
2 16940  40.0000  60.0000 0000000   0.0000 150.0000 13.56072426    15
CTC1_L_00192006-03
1 16941U 25409ZE  26037.47803241  .00000000  00000+0  00000-0 0  9997
2 16941  40.0000  60.0000 0000000   0.0000 240.0000 13.56072426    16
CTC1_L_00192006-04
1 16942U 22110NM  26037.47803241  .00000000  00000+0  00000-0 0  9994
2 16942  40.0000  60.0000 0000000   0.0000 330.0000 13.56072426    17
CTC1_L_00192007-01
1 16943U 26121UC  26037.47803241  .00000000  00000+0  00000-0 0  9991
2 16943  40.0000  72.0000 0000000   0.0000  72.0000 13.56072426    14
CTC1_L_00192007-02
1 16944U 23935YV  26037.47803241  .00000000  00000+0  00000-0 0  9992
2 16944  40.0000  72.0000 0000000   0.0000 162.0000 13.56072426    15
CTC1_L_00192007-03
1 16945U 23025HU  26037.47803241  .00000000  00000+0  00000-0 0  9993
2 16945  40.0000  72.0000 0000000   0.0000 252.0000 13.56072426    16
CTC1_L_00192007-04
1 16946U 23778VX  26037.47803241  .00000000  00000+0  00000-0 0  9999
2 16946  40.0000  72.0000 0000000   0.0000 342.0000 13.56072426    17
CTC1_L_00192008-01
1 16947U 22656EK  26037.47803241  .00000000  00000+0  00000-0 0  9994
2 16947  40.0000  84.0000 0000000   0.0000  84.0000 13.56072426    14
CTC1_L_00192008-02
1 16948U 26306UF  26037.47803241  .00000000  00000+0  00000-0 0  9991
2 16948  40.0000  84.0000 0000000   0.0000 174.0000 13.56072426    15
CTC1_L_00192008-03
1 16949U 24679IW  26037.47803241  .00000000  00000+0  00000-0 0  9993
2 16949  40.0000  84.0000 0000000   0.0000 264.0000 13.56072426    16
CTC1_L_00192008-04
1 16950U 26711DO  26037.47803241  .00000000  00000+0  00000-0 0  9994
2 16950  40.0000  84.0000 0000000   0.0000 354.0000 13.56072426    18
CTC1_L_00192009-01
1 16951U 24821MV  26037.47803241  .00000000  00000+0  00000-0 0  9995
2 16951  40.0000  96.0000 0000000   0.0000  96.0000 13.56072426    15
CTC1_L_00192009-02
1 16952U 26696PL  26037.47803241  .00000000  00000+0  00000-0 0  9998
2 16952  40.0000  96.0000 0000000   0.0000 186.0000 13.56072426    16
CTC1_L_00192009-03
1 16953U 26481PK  26037.47803241  .00000000  00000+0  00000-0 0  9991
2 16953  40.0000  96.0000 0000000   0.0000 276.0000 13.56072426    17
CTC1_L_00192009-04
1 16954U 23607GR  26037.47803241  .00000000  00000+0  00000-0 0  9999
2 16954  40.0000  96.0000 0000000   0.0000   6.0000 13.56072426    19
CTC1_L_00192010-01
1 16955U 23588HL  26037.47803241  .00000000  00000+0  00000-0 0  9998
2 16955  40.0000 108.0000 0000000   0.0000 108.0000 13.56072426    17
CTC1_L_00192010-02
1 16956U 24653OJ  26037.47803241  .00000000  00000+0  00000-0 0  9993
2 16956  40.0000 108.0000 0000000   0.0000 198.0000 13.56072426    17
CTC1_L_00192010-03
1 16957U 22691VW  26037.47803241  .00000000  00000+0  00000-0 0  9994
2 16957  40.0000 108.0000 0000000   0.0000 288.0000 13.56072426    18
CTC1_L_00192010-04
1 16958U 22300QN  26037.47803241  .00000000  00000+0  00000-0 0  9992
2 16958  40.0000 108.0000 0000000   0.0000  18.0000 13.56072426    10
CTC1_L_00192011-01
1 16959U 26151CS  26037.47803241  .00000000  00000+0  00000-0 0  9991
2 16959  40.0000 120.0000 0000000   0.0000 120.0000 13.56072426    19
CTC1_L_00192011-02
1 16960U 23447JO  26037.47803241  .00000000  00000+0  00000-0 0  9998
2 16960  40.0000 120.0000 0000000   0.0000 210.0000 13.56072426    11
CTC1_L_00192011-03
1 16961U 22946R   26037.47803241  .00000000  00000+0  00000-0 0  9992
2 16961  40.0000 120.0000 0000000   0.0000 300.0000 13.56072426    12
CTC1_L_00192011-04
1 16962U 22136OS  26037.47803241  .00000000  00000+0  00000-0 0  9994
2 16962  40.0000 120.0000 0000000   0.0000  30.0000 13.56072426    13
CTC1_L_00192012-01
1 16963U 26514VB  26037.47803241  .00000000  00000+0  00000-0 0  9999
2 16963  40.0000 132.0000 0000000   0.0000 132.0000 13.56072426    10
CTC1_L_00192012-02
1 16964U 22911IE  26037.47803241  .00000000  00000+0  00000-0 0  9997
2 16964  40.0000 132.0000 0000000   0.0000 222.0000 13.56072426    11
CTC1_L_00192012-03
1 16965U 24852G   26037.47803241  .00000000  00000+0  00000-0 0  9994
2 16965  40.0000 132.0000 0000000   0.0000 312.0000 13.56072426    12
CTC1_L_00192012-04
1 16966U 24997CM  26037.47803241  .00000000  00000+0  00000-0 0  9995
2 16966  40.0000 132.0000 0000000   0.0000  42.0000 13.56072426    13
CTC1_L_00192013-01
1 16967U 23838NM  26037.47803241  .00000000  00000+0  00000-0 0  9999
2 16967  40.0000 144.0000 0000000   0.0000 144.0000 13.56072426    10
CTC1_L_00192013-02
1 16968U 26180F   26037.47803241  .00000000  00000+0  00000-0 0  9993
2 16968  40.0000 144.0000 0000000   0.0000 234.0000 13.56072426    11
CTC1_L_00192013-03
1 16969U 24767RV  26037.47803241  .00000000  00000+0  00000-0 0  9993
2 16969  40.0000 144.0000 0000000   0.0000 324.0000 13.56072426    12
CTC1_L_00192013-04
1 16970U 25590DA  26037.47803241  .00000000  00000+0  00000-0 0  9990
2 16970  40.0000 144.0000 0000000   0.0000  54.0000 13.56072426    14
CTC1_L_00192014-01
1 16971U 22241HP  26037.47803241  .00000000  00000+0  00000-0 0  9991
2 16971  40.0000 156.0000 0000000   0.0000 156.0000 13.56072426    11
CTC1_L_00192014-02
1 16972U 26373XK  26037.47803241  .00000000  00000+0  00000-0 0  9992
2 16972  40.0000 156.0000 0000000   0.0000 246.0000 13.56072426    12
CTC1_L_00192014-03
1 16973U 24253GA  26037.47803241  .00000000  00000+0  00000-0 0  9998
2 16973  40.0000 156.0000 0000000   0.0000 336.0000 13.56072426    13
CTC1_L_00192014-04
1 16974U 25444MB  26037.47803241  .00000000  00000+0  00000-0 0  9992
2 16974  40.0000 156.0000 0000000   0.0000  66.0000 13.56072426    14
CTC1_L_00192015-01
1 16975U 25656UL  26037.47803241  .00000000  00000+0  00000-0 0  9998
2 16975  40.0000 168.0000 0000000   0.0000 168.0000 13.56072426    11
CTC1_L_00192015-02
1 16976U 23860IK  26037.47803241  .00000000  00000+0  00000-0 0  9994
2 16976  40.0000 168.0000 0000000   0.0000 258.0000 13.56072426    12
CTC1_L_00192015-03
1 16977U 23631NG  26037.47803241  .00000000  00000+0  00000-0 0  9991
2 16977  40.0000 168.0000 0000000   0.0000 348.0000 13.56072426    13
CTC1_L_00192015-04
1 16978U 23652UZ  26037.47803241  .00000000  00000+0  00000-0 0  9995
2 16978  40.0000 168.0000 0000000   0.0000  78.0000 13.56072426    14
CTC1_L_00192016-01
1 16979U 23993NQ  26037.47803241  .00000000  00000+0  00000-0 0  9994
2 16979  40.0000 180.0000 0000000   0.0000 180.0000 13.56072426    13
CTC1_L_00192016-02
1 16980U 23949HB  26037.47803241  .00000000  00000+0  00000-0 0  9997
2 16980  40.0000 180.0000 0000000   0.0000 270.0000 13.56072426    15
